SL-14 R/B               
1 20262U 89080C   25252.56048738  .00000242  00000+0  72521-4 0  9992
2 20262  82.5911 289.4987 1229647 238.7603 108.7344 12.50340246637513
DELTA 1 R/B             
1 20323U 89089B   25252.61602482  .00000317  00000+0  87710-4 0  9996
2 20323  97.0900 123.7112 0068666 335.9292  23.8701 14.50458223869489
ARIANE 40 R/B           
1 20443U 90005H   25252.77914271  .00000252  00000+0  93977-4 0  9998
2 20443  98.3381 313.5473 0010688  35.4690 324.7208 14.39693012866771
DELTA 2 R/B(1)          
1 20453U 90008B   25252.42675533  .00027379  00000+0  55180-3 0  9991
2 20453  35.6072 265.8045 0125244  41.0355 319.9719 15.37486505898070
COSMOS 2058             
1 20465U 90010A   25252.92023240  .00003229  00000+0  20011-3 0  9997
2 20465  82.4744 225.2124 0008444 224.3421 135.7132 15.09424793914958
SL-14 R/B               
1 20466U 90010B   25252.91670502  .00000435  00000+0  50076-4 0  9997
2 20466  82.4989  77.1409 0020059 171.5100 188.6459 14.83329562901687
SL-14 R/B               
1 20511U 90018B   25252.89586410  .00000428  00000+0  51056-4 0  9998
2 20511  82.5222  32.0550 0015704 331.4296  28.6056 14.81913453895808
HST                     
1 20580U 90037B   25252.22957136  .00006346  00000+0  22987-3 0  9994
2 20580  28.4680 194.8891 0002102 281.4478  78.5881 15.26252045745537
SL-16 R/B               
1 20625U 90046B   25252.58270967  .00000291  00000+0  17507-3 0  9998
2 20625  71.0003 318.2606 0015712 225.7497 134.2337 14.14975628822772
COSMOS 2084             
1 20663U 90055A   25252.45756205  .00002186  00000+0  16776-3 0  9992
2 20663  62.7889 233.0269 0047566 163.5265 196.7394 15.04143432909048
SL-6 R/B(2)             
1 20666U 90055D   25252.87426234  .00001587  00000+0  13386-3 0  9995
2 20666  62.7840 148.1834 0014239 223.9564 136.0403 15.02388215911012
SL-8 R/B                
1 20775U 90078B   25252.89901431  .00010145  00000+0  33244-3 0  9995
2 20775  82.9061  52.9295 0391686 258.7610  96.9355 14.80690617782469
SL-8 R/B                
1 21088U 91006B   25252.62278186  .00000061  00000+0  46221-4 0  9996
2 21088  82.9421 304.7480 0022583 178.8285 292.1997 13.77470696739145
OKEAN-3                 
1 21397U 91039A   25252.85184206  .00002448  00000+0  17855-3 0  9990
2 21397  82.5190 151.8568 0013036 221.5206 138.5031 15.03245260837854
COSMOS 2151             
1 21422U 91042A   25252.86135531  .00001586  00000+0  12823-3 0  9993
2 21422  82.4934 257.9301 0011190 316.6238  43.4104 14.99127755836093
SL-14 R/B               
1 21423U 91042B   25252.84400520  .00000477  00000+0  57573-4 0  9995
2 21423  82.4942  29.7516 0018434 113.6375 246.6776 14.81612931826290
ERS-1                   
1 21574U 91050A   25252.88822313  .00000270  00000+0  10128-3 0  9998
2 21574  98.7946 261.5638 0032475  20.6308 339.6182 14.39255567789727
ARIANE 40 R/B           
1 21610U 91050F   25252.74467082  .00000293  00000+0  10079-3 0  9992
2 21610  98.2315 306.4963 0001921 254.9207 105.1771 14.42697207792904
INTERCOSMOS 25          
1 21819U 91086A   25252.91113401  .00002535  00000+0  49460-3 0  9991
2 21819  82.6012  59.2483 1489592 146.4753 224.0293 12.11301405474792
SL-8 R/B                
1 21876U 92008B   25252.88283611  .00000011  00000+0 -36127-5 0  9992
2 21876  82.9265  42.2346 0033407 280.0551 190.7753 13.75938704684554
SL-8 R/B                
1 21938U 92020B   25252.72997169  .00000015  00000+0 -98862-6 0  9997
2 21938  82.9274 288.1528 0030418  83.5235  54.3461 13.75519625676256
USA 81                  
1 21949U 92023A   25252.93122195  .00000173  00000+0  56646-4 0  9990
2 21949  85.0047 235.6690 0001243 100.2903 259.8430 14.32271481 68915
COSMOS 2219             
1 22219U 92076A   25252.85296550  .00000169  00000+0  11321-3 0  9992
2 22219  71.0623  36.0857 0016093 119.3160 240.9572 14.14047715692815
SL-16 R/B               
1 22220U 92076B   25252.88879007 -.00000212  00000+0 -82060-4 0  9991
2 22220  70.9991 209.2158 0012659 359.8260  64.3854 14.16817689696224
COSMOS 2221             
1 22236U 92080A   25252.60801196  .00001454  00000+0  12974-3 0  9990
2 22236  82.5009  92.3745 0016062  81.7444 278.5598 14.95173339753727
SL-16 R/B               
1 22285U 92093B   25252.82154586  .00000185  00000+0  11913-3 0  9998
2 22285  71.0239  23.9439 0005981 239.5751 120.4782 14.15411189687569
COSMOS 2228             
1 22286U 92094A   25252.87362492  .00001960  00000+0  17170-3 0  9995
2 22286  82.5170  50.2846 0018170 186.6828 173.4155 14.96056430749011
SL-16 R/B               
1 22566U 93016B   25252.41986181  .00000276  00000+0  16637-3 0  9994
2 22566  71.0057 235.8910 0012242 244.6465 115.3391 14.15267382676521
COSMOS 2242             
1 22626U 93024A   25252.91519550  .00001687  00000+0  14975-3 0  9997
2 22626  82.5157  79.4670 0016342 188.4615 171.6334 14.95482658753361
SL-16 R/B               
1 22803U 93059B   25252.78660102  .00000243  00000+0  14388-3 0  9992
2 22803  70.9916  32.6031 0015341 130.6807 229.5653 14.17189441653908
ARIANE 40 R/B           
1 22830U 93061H   25252.75903850  .00000216  00000+0  95257-4 0  9997
2 22830  98.5195 319.9452 0011878  99.7967 260.4559 14.32707438668199
COSMOS 2278             
1 23087U 94023A   25252.89483423 -.00000091  00000+0 -23111-4 0  9998
2 23087  71.0527 193.3380 0010827 297.6967  62.3057 14.14313703619247
SL-16 R/B               
1 23088U 94023B   25252.88314401  .00000165  00000+0  10999-3 0  9996
2 23088  70.9979  90.5882 0004781 233.5900 126.4782 14.14976383620518
SL-16 R/B               
1 23343U 94074B   25252.72996293  .00000452  00000+0  67669-4 0  9990
2 23343  97.7335 285.7004 0008115  90.9475  45.3448 14.79130316660494
SL-16 R/B               
1 23405U 94077B   25252.79395592  .00000231  00000+0  14235-3 0  9999
2 23405  70.9856  13.0484 0000648  31.2940 328.8221 14.15531541590637
ARIANE 40+ R/B          
1 23561U 95021B   25252.77916442  .00000264  00000+0  98705-4 0  9994
2 23561  98.4765 321.4521 0006040 332.7306 136.1307 14.39588646593215
SL-16 R/B               
1 23705U 95058B   25252.93329426 -.00000190  00000+0 -72890-4 0  9999
2 23705  71.0214 199.7403 0011440  24.6112 335.5554 14.15462936542274
SL-16 R/B               
1 24298U 96051B   25252.93244203 -.00000139  00000+0 -48403-4 0  9996
2 24298  70.7620 197.8230 0013694  33.2621 326.9356 14.12395231496126
ORBVIEW 2 (SEASTAR)     
1 24883U 97037A   25252.87853412  .00000248  00000+0  10291-3 0  9994
2 24883  98.8381  47.6377 0001555 208.1020 152.0081 14.35308819482538
SL-16 R/B               
1 25400U 98043G   25252.84679997  .00000056  00000+0  42195-4 0  9995
2 25400  98.7942 200.2259 0009858 172.9526 187.1793 14.25990179413218
SL-16 R/B               
1 25407U 98045B   25252.89156454  .00000252  00000+0  15144-3 0  9998
2 25407  71.0110 201.7768 0009510 294.2253  65.7876 14.16153762401508
ISS (ZARYA)             
1 25544U 98067A   25252.71046895  .00007881  00000+0  14485-3 0  9994
2 25544  51.6327 248.1369 0004255 320.3174  39.7503 15.50209805528271
CZ-4B R/B               
1 25732U 99025C   25252.71519304  .00000041  00000+0  40676-4 0  9991
2 25732  98.6922 296.0191 0037824 144.0249 326.0215 14.18210037362516
OKEAN-O                 
1 25860U 99039A   25252.74860758  .00000673  00000+0  96113-4 0  9991
2 25860  97.9750 309.1980 0001284 117.0281 243.1062 14.79928386407629
SL-16 R/B               
1 25861U 99039B   25252.90281322  .00000513  00000+0  72404-4 0  9994
2 25861  98.0275 306.9780 0016088 121.4427 238.8361 14.81387335410090
DELTA 2 R/B             
1 25876U 99041E   25252.66576337  .00001495  00000+0  27936-3 0  9998
2 25876  51.7621 303.8394 0505828 174.3773 186.3142 14.11103067337464
HELIOS 1B               
1 25977U 99064A   25252.79856135  .00001453  00000+0  16989-3 0  9996
2 25977  98.1817 144.7008 0000692  39.5187 320.6078 14.86733171658376
TERRA                   
1 25994U 99068A   25252.90819538  .00000415  00000+0  94149-4 0  9990
2 25994  97.9899 307.9603 0003208  57.2439  55.9780 14.60792892368686
SL-16 R/B               
1 26070U 00006B   25252.93085629  .00000007  00000+0  27589-4 0  9990
2 26070  71.0020 117.9009 0014260  97.4019 262.8725 14.15789705322979
TITAN 4B R/B            
1 26474U 00047B   25252.90563087  .00002792  00000+0  18651-3 0  9991
2 26474  67.9906 188.1702 0047731 246.6447 112.9676 15.07727800365647
ENVISAT                 
1 27386U 02009A   25252.89623461  .00000107  00000+0  48521-4 0  9993
2 27386  98.3418 206.1020 0001178  88.6031 338.3620 14.38946421233178
IDEFIX & ARIANE 42P R/B 
1 27422U 02021B   25252.81222833  .00000269  00000+0  11919-3 0  9997
2 27422  98.5633 188.8030 0012095   5.9739 354.1587 14.30845732218158
AQUA                    
1 27424U 02022A   25252.90607029  .00000929  00000+0  19742-3 0  9999
2 27424  98.3866 212.3648 0001905  98.1092 336.6004 14.61468226242326
CZ-4B R/B               
1 27432U 02024C   25252.79015508  .00000041  00000+0  43963-4 0  9990
2 27432  98.9154 301.8127 0050309 175.4635 296.7768 14.14500811203663
MIDORI II (ADEOS-II)    
1 27597U 02056A   25252.90052738  .00000255  00000+0  11851-3 0  9993
2 27597  98.7455 205.4522 0001610 121.4098 238.7241 14.29105914184470
H-2A R/B                
1 27601U 02056E   25252.87658685  .00000338  00000+0  13360-3 0  9997
2 27601  98.2888 215.4525 0070123 341.5598  71.7265 14.33571301188208
CZ-4B R/B               
1 28059U 03049C   25252.92239882  .00000410  00000+0  10596-3 0  9997
2 28059  98.6687 235.9841 0049480  63.9966 296.6314 14.54758926160319
CZ-2C R/B               
1 28222U 04012C   25252.70341850  .00018813  00000+0  35933-3 0  9993
2 28222  97.7576 298.0697 0020092 248.5853 111.3253 15.47953112176141
SL-16 R/B               
1 28353U 04021B   25252.43067375 -.00000242  00000+0 -10107-3 0  9990
2 28353  70.9983 252.8702 0007226 300.6670  59.3740 14.14561522 97201
